{
  "type": "FeatureCollection",
  "features": [
    {
      "type": "Feature",
      "properties": {
        "norad_id": 28890,
        "name": "BEIJING 1",
        "group": "dmc",
        "lat": -45.37828169546338,
        "lon": 112.25102750385827,
        "alt_km": 697.2045450980986,
        "timestamp": "2025-12-02T07:10:08.776063+00:00",
        "meta_object_name": "BEIJING 1",
        "meta_object_id": "2005-043A",
        "meta_epoch": "2025-12-01T21:31:59.400192",
        "meta_mean_motion": 14.63348704,
        "meta_eccentricity": 0.0014748,
        "meta_inclination": 98.2649,
        "meta_ra_of_asc_node": 103.379,
        "meta_arg_of_pericenter": 174.3625,
        "meta_mean_anomaly": 185.7745,
        "meta_ephemeris_type": 0,
        "meta_classification_type": "U",
        "meta_norad_cat_id": 28890,
        "meta_element_set_no": 999,
        "meta_rev_at_epoch": 7179,
        "meta_bstar": 9.9813e-05,
        "meta_mean_motion_dot": 4.67e-06,
        "meta_mean_motion_ddot": 0,
        "tle_line1": "1 28890U 05043A   25335.89721528  .00000467  00000+0  99813-4 0  9999",
        "tle_line2": "2 28890  98.2649 103.3790 0014748 174.3625 185.7745 14.63348704 71793"
      },
      "geometry": {
        "type": "Point",
        "coordinates": [
          112.25102750385827,
          -45.37828169546338
        ]
      }
    },
    {
      "type": "Feature",
      "properties": {
        "norad_id": 33320,
        "name": "HUANJING 1A (HJ-1A)",
        "group": "dmc",
        "lat": -48.85799340572521,
        "lon": -26.112114244052734,
        "alt_km": 632.0017597838005,
        "timestamp": "2025-12-02T07:10:08.776088+00:00",
        "meta_object_name": "HUANJING 1A (HJ-1A)",
        "meta_object_id": "2008-041A",
        "meta_epoch": "2025-12-01T21:40:40.367136",
        "meta_mean_motion": 14.83337268,
        "meta_eccentricity": 0.0020686,
        "meta_inclination": 97.6533,
        "meta_ra_of_asc_node": 324.6552,
        "meta_arg_of_pericenter": 67.8721,
        "meta_mean_anomaly": 292.4687,
        "meta_ephemeris_type": 0,
        "meta_classification_type": "U",
        "meta_norad_cat_id": 33320,
        "meta_element_set_no": 999,
        "meta_rev_at_epoch": 92915,
        "meta_bstar": 0.00020736,
        "meta_mean_motion_dot": 1.654e-05,
        "meta_mean_motion_ddot": 0,
        "tle_line1": "1 33320U 08041A   25335.90324499  .00001654  00000+0  20736-3 0  9998",
        "tle_line2": "2 33320  97.6533 324.6552 0020686  67.8721 292.4687 14.83337268929155"
      },
      "geometry": {
        "type": "Point",
        "coordinates": [
          -26.112114244052734,
          -48.85799340572521
        ]
      }
    },
    {
      "type": "Feature",
      "properties": {
        "norad_id": 33321,
        "name": "HUANJING 1B (HJ-1B)",
        "group": "dmc",
        "lat": -13.72932547831753,
        "lon": 146.87903248738186,
        "alt_km": 622.7897024173499,
        "timestamp": "2025-12-02T07:10:08.776103+00:00",
        "meta_object_name": "HUANJING 1B (HJ-1B)",
        "meta_object_id": "2008-041B",
        "meta_epoch": "2025-12-01T20:35:03.789600",
        "meta_mean_motion": 14.82774654,
        "meta_eccentricity": 0.0038115,
        "meta_inclination": 97.6395,
        "meta_ra_of_asc_node": 328.3368,
        "meta_arg_of_pericenter": 110.1621,
        "meta_mean_anomaly": 250.37,
        "meta_ephemeris_type": 0,
        "meta_classification_type": "U",
        "meta_norad_cat_id": 33321,
        "meta_element_set_no": 999,
        "meta_rev_at_epoch": 92916,
        "meta_bstar": 0.00016761,
        "meta_mean_motion_dot": 1.32e-05,
        "meta_mean_motion_ddot": 0,
        "tle_line1": "1 33321U 08041B   25335.85768275  .00001320  00000+0  16761-3 0  9990",
        "tle_line2": "2 33321  97.6395 328.3368 0038115 110.1621 250.3700 14.82774654929168"
      },
      "geometry": {
        "type": "Point",
        "coordinates": [
          146.87903248738186,
          -13.72932547831753
        ]
      }
    },
    {
      "type": "Feature",
      "properties": {
        "norad_id": 33446,
        "name": "YAOGAN-4",
        "group": "dmc",
        "lat": 68.31182192366244,
        "lon": 106.98116322144675,
        "alt_km": 618.2164227241337,
        "timestamp": "2025-12-02T07:10:08.776115+00:00",
        "meta_object_name": "YAOGAN-4",
        "meta_object_id": "2008-061A",
        "meta_epoch": "2025-12-01T17:42:59.550336",
        "meta_mean_motion": 14.8262448,
        "meta_eccentricity": 0.0014543,
        "meta_inclination": 97.9166,
        "meta_ra_of_asc_node": 265.9464,
        "meta_arg_of_pericenter": 359.9883,
        "meta_mean_anomaly": 0.1328,
        "meta_ephemeris_type": 0,
        "meta_classification_type": "U",
        "meta_norad_cat_id": 33446,
        "meta_element_set_no": 999,
        "meta_rev_at_epoch": 91640,
        "meta_bstar": 0.00022043,
        "meta_mean_motion_dot": 1.725e-05,
        "meta_mean_motion_ddot": 0,
        "tle_line1": "1 33446U 08061A   25335.73818924  .00001725  00000+0  22043-3 0  9993",
        "tle_line2": "2 33446  97.9166 265.9464 0014543 359.9883   0.1328 14.82624480916401"
      },
      "geometry": {
        "type": "Point",
        "coordinates": [
          106.98116322144675,
          68.31182192366244
        ]
      }
    },
    {
      "type": "Feature",
      "properties": {
        "norad_id": 35681,
        "name": "DEIMOS-1",
        "group": "dmc",
        "lat": 10.07238464340272,
        "lon": -41.231917015500066,
        "alt_km": 646.4229807108659,
        "timestamp": "2025-12-02T07:10:08.776126+00:00",
        "meta_object_name": "DEIMOS-1",
        "meta_object_id": "2009-041A",
        "meta_epoch": "2025-12-01T20:37:59.405376",
        "meta_mean_motion": 14.74924599,
        "meta_eccentricity": 0.0002661,
        "meta_inclination": 97.7145,
        "meta_ra_of_asc_node": 136.97,
        "meta_arg_of_pericenter": 99.2344,
        "meta_mean_anomaly": 260.9167,
        "meta_ephemeris_type": 0,
        "meta_classification_type": "U",
        "meta_norad_cat_id": 35681,
        "meta_element_set_no": 999,
        "meta_rev_at_epoch": 87779,
        "meta_bstar": 0.00012651,
        "meta_mean_motion_dot": 8.02e-06,
        "meta_mean_motion_ddot": 0,
        "tle_line1": "1 35681U 09041A   25335.85971534  .00000802  00000+0  12651-3 0  9994",
        "tle_line2": "2 35681  97.7145 136.9700 0002661  99.2344 260.9167 14.74924599877793"
      },
      "geometry": {
        "type": "Point",
        "coordinates": [
          -41.231917015500066,
          10.07238464340272
        ]
      }
    },
    {
      "type": "Feature",
      "properties": {
        "norad_id": 35683,
        "name": "UK-DMC 2",
        "group": "dmc",
        "lat": 19.957284879174498,
        "lon": -65.62917900122677,
        "alt_km": 642.9321165882466,
        "timestamp": "2025-12-02T07:10:08.776137+00:00",
        "meta_object_name": "UK-DMC 2",
        "meta_object_id": "2009-041C",
        "meta_epoch": "2025-12-01T20:40:58.281024",
        "meta_mean_motion": 14.75581404,
        "meta_eccentricity": 0.0001263,
        "meta_inclination": 97.8561,
        "meta_ra_of_asc_node": 111.0725,
        "meta_arg_of_pericenter": 103.0845,
        "meta_mean_anomaly": 257.0505,
        "meta_ephemeris_type": 0,
        "meta_classification_type": "U",
        "meta_norad_cat_id": 35683,
        "meta_element_set_no": 999,
        "meta_rev_at_epoch": 87746,
        "meta_bstar": 0.00017902,
        "meta_mean_motion_dot": 1.171e-05,
        "meta_mean_motion_ddot": 0,
        "tle_line1": "1 35683U 09041C   25335.86178566  .00001171  00000+0  17902-3 0  9995",
        "tle_line2": "2 35683  97.8561 111.0725 0001263 103.0845 257.0505 14.75581404877468"
      },
      "geometry": {
        "type": "Point",
        "coordinates": [
          -65.62917900122677,
          19.957284879174498
        ]
      }
    },
    {
      "type": "Feature",
      "properties": {
        "norad_id": 40715,
        "name": "DMC3-FM1",
        "group": "dmc",
        "lat": -20.088211870599594,
        "lon": 21.045652723634777,
        "alt_km": 621.0695336298932,
        "timestamp": "2025-12-02T07:10:08.776147+00:00",
        "meta_object_name": "DMC3-FM1",
        "meta_object_id": "2015-032A",
        "meta_epoch": "2025-12-01T20:34:13.367424",
        "meta_mean_motion": 14.85408441,
        "meta_eccentricity": 0.0005455,
        "meta_inclination": 97.6706,
        "meta_ra_of_asc_node": 203.4454,
        "meta_arg_of_pericenter": 359.4988,
        "meta_mean_anomaly": 0.6221,
        "meta_ephemeris_type": 0,
        "meta_classification_type": "U",
        "meta_norad_cat_id": 40715,
        "meta_element_set_no": 999,
        "meta_rev_at_epoch": 56061,
        "meta_bstar": 0.00010899,
        "meta_mean_motion_dot": 8.87e-06,
        "meta_mean_motion_ddot": 0,
        "tle_line1": "1 40715U 15032A   25335.85709916  .00000887  00000+0  10899-3 0  9993",
        "tle_line2": "2 40715  97.6706 203.4454 0005455 359.4988   0.6221 14.85408441560619"
      },
      "geometry": {
        "type": "Point",
        "coordinates": [
          21.045652723634777,
          -20.088211870599594
        ]
      }
    },
    {
      "type": "Feature",
      "properties": {
        "norad_id": 40716,
        "name": "DMC3-FM2",
        "group": "dmc",
        "lat": 77.37490507292532,
        "lon": 168.2859966236928,
        "alt_km": 604.1429735176534,
        "timestamp": "2025-12-02T07:10:08.776157+00:00",
        "meta_object_name": "DMC3-FM2",
        "meta_object_id": "2015-032B",
        "meta_epoch": "2025-12-01T21:06:38.099232",
        "meta_mean_motion": 14.85409644,
        "meta_eccentricity": 0.0006101,
        "meta_inclination": 97.6757,
        "meta_ra_of_asc_node": 204.9032,
        "meta_arg_of_pericenter": 3.419,
        "meta_mean_anomaly": 356.7066,
        "meta_ephemeris_type": 0,
        "meta_classification_type": "U",
        "meta_norad_cat_id": 40716,
        "meta_element_set_no": 999,
        "meta_rev_at_epoch": 56061,
        "meta_bstar": 0.00011474,
        "meta_mean_motion_dot": 9.37e-06,
        "meta_mean_motion_ddot": 0,
        "tle_line1": "1 40716U 15032B   25335.87960763  .00000937  00000+0  11474-3 0  9991",
        "tle_line2": "2 40716  97.6757 204.9032 0006101   3.4190 356.7066 14.85409644560612"
      },
      "geometry": {
        "type": "Point",
        "coordinates": [
          168.2859966236928,
          77.37490507292532
        ]
      }
    },
    {
      "type": "Feature",
      "properties": {
        "norad_id": 40717,
        "name": "DMC3-FM3",
        "group": "dmc",
        "lat": -35.111484400112374,
        "lon": -147.62139808390418,
        "alt_km": 615.6698728346792,
        "timestamp": "2025-12-02T07:10:08.776168+00:00",
        "meta_object_name": "DMC3-FM3",
        "meta_object_id": "2015-032C",
        "meta_epoch": "2025-12-01T21:37:40.990368",
        "meta_mean_motion": 14.85404196,
        "meta_eccentricity": 0.0005456,
        "meta_inclination": 97.6812,
        "meta_ra_of_asc_node": 206.5499,
        "meta_arg_of_pericenter": 5.427,
        "meta_mean_anomaly": 354.7003,
        "meta_ephemeris_type": 0,
        "meta_classification_type": "U",
        "meta_norad_cat_id": 40717,
        "meta_element_set_no": 999,
        "meta_rev_at_epoch": 56062,
        "meta_bstar": 9.378e-05,
        "meta_mean_motion_dot": 7.56e-06,
        "meta_mean_motion_ddot": 0,
        "tle_line1": "1 40717U 15032C   25335.90116887  .00000756  00000+0  93780-4 0  9996",
        "tle_line2": "2 40717  97.6812 206.5499 0005456   5.4270 354.7003 14.85404196560620"
      },
      "geometry": {
        "type": "Point",
        "coordinates": [
          -147.62139808390418,
          -35.111484400112374
        ]
      }
    }
  ]
}